[{"OBJECT_NAME":"STARLINK-6197","OBJECT_ID":"2023-078A","EPOCH":"2026-03-09T22:55:29.940960","MEAN_MOTION":15.17018833,"ECCENTRICITY":0.00072438,"INCLINATION":69.9932,"RA_OF_ASC_NODE":349.0269,"ARG_OF_PERICENTER":212.47,"MEAN_ANOMALY":147.6024,"EPHEMERIS_TYPE":0,"CLASSIFICATION_TYPE":"U","NORAD_CAT_ID":56767,"ELEMENT_SET_NO":999,"REV_AT_EPOCH":15259,"BSTAR":0.00062350917,"MEAN_MOTION_DOT":0.00012272,"MEAN_MOTION_DDOT":0},{"OBJECT_NAME":"PHI 1","OBJECT_ID":"2025-276DP","EPOCH":"2026-03-09T17:39:12.133440","MEAN_MOTION":15.19973113,"ECCENTRICITY":0.00029619,"INCLINATION":97.4203,"RA_OF_ASC_NODE":144.0831,"ARG_OF_PERICENTER":121.0034,"MEAN_ANOMALY":239.1492,"EPHEMERIS_TYPE":0,"CLASSIFICATION_TYPE":"U","NORAD_CAT_ID":66775,"ELEMENT_SET_NO":999,"REV_AT_EPOCH":1533,"BSTAR":0.00038773813,"MEAN_MOTION_DOT":8.281e-5,"MEAN_MOTION_DDOT":0}]
